[{"OBJECT_NAME":"SPEQTRE","OBJECT_ID":"2025-276DH","EPOCH":"2026-03-09T18:08:43.723104","MEAN_MOTION":15.19499769,"ECCENTRICITY":0.00013871,"INCLINATION":97.4277,"RA_OF_ASC_NODE":144.1551,"ARG_OF_PERICENTER":149.2003,"MEAN_ANOMALY":210.9313,"EPHEMERIS_TYPE":0,"CLASSIFICATION_TYPE":"U","NORAD_CAT_ID":66769,"ELEMENT_SET_NO":999,"REV_AT_EPOCH":1533,"BSTAR":0.00033482906,"MEAN_MOTION_DOT":7.042e-5,"MEAN_MOTION_DDOT":0},{"OBJECT_NAME":"CZ-4 DEB","OBJECT_ID":"1990-081Z","EPOCH":"2026-03-09T18:07:39.944352","MEAN_MOTION":15.17725505,"ECCENTRICITY":0.00034514,"INCLINATION":98.0344,"RA_OF_ASC_NODE":132.584,"ARG_OF_PERICENTER":292.5158,"MEAN_ANOMALY":67.5708,"EPHEMERIS_TYPE":0,"CLASSIFICATION_TYPE":"U","NORAD_CAT_ID":20861,"ELEMENT_SET_NO":999,"REV_AT_EPOCH":85925,"BSTAR":0.0035527985,"MEAN_MOTION_DOT":0.00072268,"MEAN_MOTION_DDOT":0}]
